[{"OBJECT_NAME":"ONEWEB-0375","OBJECT_ID":"2021-090Y","EPOCH":"2025-10-16T02:05:42.104832","MEAN_MOTION":13.20770753,"ECCENTRICITY":0.0001727,"INCLINATION":87.9213,"RA_OF_ASC_NODE":323.1185,"ARG_OF_PERICENTER":77.1045,"MEAN_ANOMALY":283.0282,"EPHEMERIS_TYPE":0,"CLASSIFICATION_TYPE":"U","NORAD_CAT_ID":49301,"ELEMENT_SET_NO":999,"REV_AT_EPOCH":19830,"BSTAR":-0.00042864,"MEAN_MOTION_DOT":-1.61e-6,"MEAN_MOTION_DDOT":0},{"OBJECT_NAME":"ONEWEB-0376","OBJECT_ID":"2021-090Z","EPOCH":"2025-10-16T03:12:59.827392","MEAN_MOTION":13.19724088,"ECCENTRICITY":0.0001846,"INCLINATION":87.9272,"RA_OF_ASC_NODE":353.5002,"ARG_OF_PERICENTER":107.2649,"MEAN_ANOMALY":252.8686,"EPHEMERIS_TYPE":0,"CLASSIFICATION_TYPE":"U","NORAD_CAT_ID":49302,"ELEMENT_SET_NO":999,"REV_AT_EPOCH":19426,"BSTAR":-0.00012302,"MEAN_MOTION_DOT":-3.6e-7,"MEAN_MOTION_DDOT":0},{"OBJECT_NAME":"ONEWEB-0377","OBJECT_ID":"2021-090AA","EPOCH":"2025-10-16T03:34:33.072096","MEAN_MOTION":13.20769853,"ECCENTRICITY":0.0002048,"INCLINATION":87.9216,"RA_OF_ASC_NODE":323.103,"ARG_OF_PERICENTER":91.2065,"MEAN_ANOMALY":268.9303,"EPHEMERIS_TYPE":0,"CLASSIFICATION_TYPE":"U","NORAD_CAT_ID":49303,"ELEMENT_SET_NO":999,"REV_AT_EPOCH":19830,"BSTAR":0.00039459,"MEAN_MOTION_DOT":1.73e-6,"MEAN_MOTION_DDOT":0},{"OBJECT_NAME":"ONEWEB-0378","OBJECT_ID":"2021-090AB","EPOCH":"2025-10-16T02:17:16.658016","MEAN_MOTION":13.20771038,"ECCENTRICITY":0.0001804,"INCLINATION":87.9225,"RA_OF_ASC_NODE":323.1289,"ARG_OF_PERICENTER":91.1039,"MEAN_ANOMALY":269.0301,"EPHEMERIS_TYPE":0,"CLASSIFICATION_TYPE":"U","NORAD_CAT_ID":49304,"ELEMENT_SET_NO":999,"REV_AT_EPOCH":19756,"BSTAR":-1.0455e-5,"MEAN_MOTION_DOT":9.0e-8,"MEAN_MOTION_DDOT":0},{"OBJECT_NAME":"ONEWEB-0379","OBJECT_ID":"2021-090AC","EPOCH":"2025-10-16T03:45:18.422208","MEAN_MOTION":13.14503656,"ECCENTRICITY":0.0001737,"INCLINATION":87.9043,"RA_OF_ASC_NODE":338.3157,"ARG_OF_PERICENTER":98.7926,"MEAN_ANOMALY":261.34,"EPHEMERIS_TYPE":0,"CLASSIFICATION_TYPE":"U","NORAD_CAT_ID":49305,"ELEMENT_SET_NO":999,"REV_AT_EPOCH":19550,"BSTAR":-0.00020438,"MEAN_MOTION_DOT":-6.3e-7,"MEAN_MOTION_DDOT":0},{"OBJECT_NAME":"ONEWEB-0380","OBJECT_ID":"2021-090AD","EPOCH":"2025-10-16T03:08:26.950272","MEAN_MOTION":13.19723304,"ECCENTRICITY":0.000188,"INCLINATION":87.9268,"RA_OF_ASC_NODE":353.5264,"ARG_OF_PERICENTER":93.4434,"MEAN_ANOMALY":266.6913,"EPHEMERIS_TYPE":0,"CLASSIFICATION_TYPE":"U","NORAD_CAT_ID":49306,"ELEMENT_SET_NO":999,"REV_AT_EPOCH":19423,"BSTAR":0.00043356,"MEAN_MOTION_DOT":1.87e-6,"MEAN_MOTION_DDOT":0},{"OBJECT_NAME":"ONEWEB-0381","OBJECT_ID":"2021-090AE","EPOCH":"2025-10-16T03:29:48.594912","MEAN_MOTION":13.20771343,"ECCENTRICITY":0.0001795,"INCLINATION":87.9207,"RA_OF_ASC_NODE":323.1104,"ARG_OF_PERICENTER":86.8185,"MEAN_ANOMALY":273.3153,"EPHEMERIS_TYPE":0,"CLASSIFICATION_TYPE":"U","NORAD_CAT_ID":49307,"ELEMENT_SET_NO":999,"REV_AT_EPOCH":19761,"BSTAR":-0.00031403,"MEAN_MOTION_DOT":-1.15e-6,"MEAN_MOTION_DDOT":0},{"OBJECT_NAME":"ONEWEB-0382","OBJECT_ID":"2021-090AF","EPOCH":"2025-10-16T03:11:36.816000","MEAN_MOTION":13.20769201,"ECCENTRICITY":0.0001667,"INCLINATION":87.9217,"RA_OF_ASC_NODE":323.1045,"ARG_OF_PERICENTER":88.6843,"MEAN_ANOMALY":271.4481,"EPHEMERIS_TYPE":0,"CLASSIFICATION_TYPE":"U","NORAD_CAT_ID":49308,"ELEMENT_SET_NO":999,"REV_AT_EPOCH":19760,"BSTAR":0.00022445,"MEAN_MOTION_DOT":1.04e-6,"MEAN_MOTION_DDOT":0},{"OBJECT_NAME":"ONEWEB-0383","OBJECT_ID":"2021-090AG","EPOCH":"2025-10-16T03:36:11.885184","MEAN_MOTION":13.14502027,"ECCENTRICITY":0.0001678,"INCLINATION":87.9048,"RA_OF_ASC_NODE":338.2997,"ARG_OF_PERICENTER":97.6621,"MEAN_ANOMALY":262.47,"EPHEMERIS_TYPE":0,"CLASSIFICATION_TYPE":"U","NORAD_CAT_ID":49309,"ELEMENT_SET_NO":999,"REV_AT_EPOCH":19553,"BSTAR":1.33e-5,"MEAN_MOTION_DOT":1.8e-7,"MEAN_MOTION_DDOT":0},{"OBJECT_NAME":"ONEWEB-0384","OBJECT_ID":"2021-090AH","EPOCH":"2025-10-16T03:03:44.618400","MEAN_MOTION":13.20795544,"ECCENTRICITY":0.0001425,"INCLINATION":87.9231,"RA_OF_ASC_NODE":323.1357,"ARG_OF_PERICENTER":86.5124,"MEAN_ANOMALY":273.6172,"EPHEMERIS_TYPE":0,"CLASSIFICATION_TYPE":"U","NORAD_CAT_ID":49310,"ELEMENT_SET_NO":999,"REV_AT_EPOCH":19761,"BSTAR":0.00021009,"MEAN_MOTION_DOT":9.8e-7,"MEAN_MOTION_DDOT":0},{"OBJECT_NAME":"ONEWEB-0385","OBJECT_ID":"2021-090AJ","EPOCH":"2025-10-16T03:00:16.269120","MEAN_MOTION":13.20771764,"ECCENTRICITY":0.0001766,"INCLINATION":87.9209,"RA_OF_ASC_NODE":323.1159,"ARG_OF_PERICENTER":91.8754,"MEAN_ANOMALY":268.2581,"EPHEMERIS_TYPE":0,"CLASSIFICATION_TYPE":"U","NORAD_CAT_ID":49311,"ELEMENT_SET_NO":999,"REV_AT_EPOCH":19758,"BSTAR":-4.1231e-5,"MEAN_MOTION_DOT":-4.0e-8,"MEAN_MOTION_DDOT":0},{"OBJECT_NAME":"ONEWEB-0386","OBJECT_ID":"2021-090AK","EPOCH":"2025-10-16T03:25:15.360096","MEAN_MOTION":13.20769908,"ECCENTRICITY":0.000162,"INCLINATION":87.9219,"RA_OF_ASC_NODE":323.0914,"ARG_OF_PERICENTER":90.5826,"MEAN_ANOMALY":269.5493,"EPHEMERIS_TYPE":0,"CLASSIFICATION_TYPE":"U","NORAD_CAT_ID":49312,"ELEMENT_SET_NO":999,"REV_AT_EPOCH":19760,"BSTAR":0.00010526,"MEAN_MOTION_DOT":5.6e-7,"MEAN_MOTION_DDOT":0},{"OBJECT_NAME":"ONEWEB-0387","OBJECT_ID":"2021-090AL","EPOCH":"2025-10-16T03:02:30.785280","MEAN_MOTION":13.20769325,"ECCENTRICITY":0.0001972,"INCLINATION":87.9209,"RA_OF_ASC_NODE":323.1451,"ARG_OF_PERICENTER":85.5959,"MEAN_ANOMALY":274.54,"EPHEMERIS_TYPE":0,"CLASSIFICATION_TYPE":"U","NORAD_CAT_ID":49313,"ELEMENT_SET_NO":999,"REV_AT_EPOCH":19760,"BSTAR":0.00012044,"MEAN_MOTION_DOT":6.2e-7,"MEAN_MOTION_DDOT":0},{"OBJECT_NAME":"ONEWEB-0388","OBJECT_ID":"2021-090AM","EPOCH":"2025-10-16T03:01:37.427232","MEAN_MOTION":13.19725158,"ECCENTRICITY":0.000175,"INCLINATION":87.926,"RA_OF_ASC_NODE":353.5331,"ARG_OF_PERICENTER":96.4631,"MEAN_ANOMALY":263.6701,"EPHEMERIS_TYPE":0,"CLASSIFICATION_TYPE":"U","NORAD_CAT_ID":49314,"ELEMENT_SET_NO":999,"REV_AT_EPOCH":19422,"BSTAR":-7.5642e-5,"MEAN_MOTION_DOT":-1.7e-7,"MEAN_MOTION_DDOT":0},{"OBJECT_NAME":"ONEWEB-0389","OBJECT_ID":"2021-132A","EPOCH":"2025-10-16T01:32:03.965856","MEAN_MOTION":13.176488,"ECCENTRICITY":0.0001622,"INCLINATION":87.9109,"RA_OF_ASC_NODE":54.4154,"ARG_OF_PERICENTER":85.8811,"MEAN_ANOMALY":274.2505,"EPHEMERIS_TYPE":0,"CLASSIFICATION_TYPE":"U","NORAD_CAT_ID":50469,"ELEMENT_SET_NO":999,"REV_AT_EPOCH":18593,"BSTAR":-0.00032295,"MEAN_MOTION_DOT":-1.13e-6,"MEAN_MOTION_DDOT":0},{"OBJECT_NAME":"ONEWEB-0390","OBJECT_ID":"2021-132B","EPOCH":"2025-10-16T01:34:28.716096","MEAN_MOTION":13.17646973,"ECCENTRICITY":0.000201,"INCLINATION":87.9106,"RA_OF_ASC_NODE":54.4209,"ARG_OF_PERICENTER":97.19,"MEAN_ANOMALY":262.9461,"EPHEMERIS_TYPE":0,"CLASSIFICATION_TYPE":"U","NORAD_CAT_ID":50470,"ELEMENT_SET_NO":999,"REV_AT_EPOCH":18593,"BSTAR":-5.3107e-5,"MEAN_MOTION_DOT":-8.0e-8,"MEAN_MOTION_DDOT":0},{"OBJECT_NAME":"ONEWEB-0391","OBJECT_ID":"2021-132C","EPOCH":"2025-10-16T01:36:56.164608","MEAN_MOTION":13.17649235,"ECCENTRICITY":0.0002004,"INCLINATION":87.9102,"RA_OF_ASC_NODE":54.4315,"ARG_OF_PERICENTER":73.574,"MEAN_ANOMALY":286.5611,"EPHEMERIS_TYPE":0,"CLASSIFICATION_TYPE":"U","NORAD_CAT_ID":50471,"ELEMENT_SET_NO":999,"REV_AT_EPOCH":18593,"BSTAR":-0.00027422,"MEAN_MOTION_DOT":-9.4e-7,"MEAN_MOTION_DDOT":0}]
