ONEWEB-0375             
1 49301U 21090Y   25289.08729288 -.00000161  00000+0 -42864-3 0  9995
2 49301  87.9213 323.1185 0001727  77.1045 283.0282 13.20770753198304
ONEWEB-0376             
1 49302U 21090Z   25289.13402578 -.00000036  00000+0 -12302-3 0  9997
2 49302  87.9272 353.5002 0001846 107.2649 252.8686 13.19724088194263
ONEWEB-0377             
1 49303U 21090AA  25289.14899389  .00000173  00000+0  39459-3 0  9991
2 49303  87.9216 323.1030 0002048  91.2065 268.9303 13.20769853198309
ONEWEB-0378             
1 49304U 21090AB  25289.09533169  .00000009  00000+0 -10455-4 0  9992
2 49304  87.9225 323.1289 0001804  91.1039 269.0301 13.20771038197560
ONEWEB-0379             
1 49305U 21090AC  25289.15646322 -.00000063  00000+0 -20438-3 0  9998
2 49305  87.9043 338.3157 0001737  98.7926 261.3400 13.14503656195503
ONEWEB-0380             
1 49306U 21090AD  25289.13086748  .00000187  00000+0  43356-3 0  9996
2 49306  87.9268 353.5264 0001880  93.4434 266.6913 13.19723304194231
ONEWEB-0381             
1 49307U 21090AE  25289.14570133 -.00000115  00000+0 -31403-3 0  9997
2 49307  87.9207 323.1104 0001795  86.8185 273.3153 13.20771343197619
ONEWEB-0382             
1 49308U 21090AF  25289.13306500  .00000104  00000+0  22445-3 0  9994
2 49308  87.9217 323.1045 0001667  88.6843 271.4481 13.20769201197606
ONEWEB-0383             
1 49309U 21090AG  25289.15013756  .00000018  00000+0  13300-4 0  9990
2 49309  87.9048 338.2997 0001678  97.6621 262.4700 13.14502027195536
ONEWEB-0384             
1 49310U 21090AH  25289.12759975  .00000098  00000+0  21009-3 0  9991
2 49310  87.9231 323.1357 0001425  86.5124 273.6172 13.20795544197613
ONEWEB-0385             
1 49311U 21090AJ  25289.12518830 -.00000004  00000+0 -41231-4 0  9994
2 49311  87.9209 323.1159 0001766  91.8754 268.2581 13.20771764197583
ONEWEB-0386             
1 49312U 21090AK  25289.14253889  .00000056  00000+0  10526-3 0  9994
2 49312  87.9219 323.0914 0001620  90.5826 269.5493 13.20769908197604
ONEWEB-0387             
1 49313U 21090AL  25289.12674520  .00000062  00000+0  12044-3 0  9996
2 49313  87.9209 323.1451 0001972  85.5959 274.5400 13.20769325197609
ONEWEB-0388             
1 49314U 21090AM  25289.12612763 -.00000017  00000+0 -75642-4 0  9994
2 49314  87.9260 353.5331 0001750  96.4631 263.6701 13.19725158194225
ONEWEB-0389             
1 50469U 21132A   25289.06393479 -.00000113  00000+0 -32295-3 0  9990
2 50469  87.9109  54.4154 0001622  85.8811 274.2505 13.17648800185934
ONEWEB-0390             
1 50470U 21132B   25289.06561014 -.00000008  00000+0 -53107-4 0  9993
2 50470  87.9106  54.4209 0002010  97.1900 262.9461 13.17646973185935
ONEWEB-0391             
1 50471U 21132C   25289.06731672 -.00000094  00000+0 -27422-3 0  9998
2 50471  87.9102  54.4315 0002004  73.5740 286.5611 13.17649235185936
